{
  "norad_id": 55349,
  "name": "STARLINK-5666",
  "history": [
    {
      "epoch": "2026-03-28T22:00:01.999584Z",
      "apogee_km": 496.80185880152385,
      "perigee_km": 494.3456070082275,
      "latitude_deg": -40.89044247255603,
      "longitude_deg": -74.65071802466892,
      "height_km": 506.7765636184401,
      "semi_major_axis_km": 6873.710732904876,
      "eccentricity": 0.00017867,
      "inclination_deg": 42.9995,
      "raan_deg": 194.2441,
      "arg_perigee_deg": 262.0118,
      "mean_anomaly_deg": 351.062,
      "mean_motion_rev_day": 15.23406781
    },
    {
      "epoch": "2026-03-29T04:00:01.999584Z",
      "apogee_km": 495.60667013186685,
      "perigee_km": 494.00664884793696,
      "latitude_deg": -4.096553307198423,
      "longitude_deg": 130.63513359543492,
      "height_km": 495.0133975808536,
      "semi_major_axis_km": 6872.943659489902,
      "eccentricity": 0.0001164,
      "inclination_deg": 42.9991,
      "raan_deg": 192.8395,
      "arg_perigee_deg": 262.0114,
      "mean_anomaly_deg": 283.894,
      "mean_motion_rev_day": 15.23661824
    },
    {
      "epoch": "2026-03-30T04:00:01.999584Z",
      "apogee_km": 492.6354847550183,
      "perigee_km": 489.86025326793697,
      "latitude_deg": -42.38128388677532,
      "longitude_deg": -137.06063352918278,
      "height_km": 502.91182970528854,
      "semi_major_axis_km": 6869.384869011477,
      "eccentricity": 0.000202,
      "inclination_deg": 42.9992,
      "raan_deg": 187.2153,
      "arg_perigee_deg": 269.7552,
      "mean_anomaly_deg": 10.0642,
      "mean_motion_rev_day": 15.24846012
    },
    {
      "epoch": "2026-03-30T06:00:02.000160Z",
      "apogee_km": 492.1752560998366,
      "perigee_km": 489.73974995284425,
      "latitude_deg": 12.083320361882189,
      "longitude_deg": -77.70558499230197,
      "height_km": 489.82484261385946,
      "semi_major_axis_km": 6869.09450302634,
      "eccentricity": 0.00017728,
      "inclination_deg": 42.9996,
      "raan_deg": 186.7499,
      "arg_perigee_deg": 294.6254,
      "mean_anomaly_deg": 83.2058,
      "mean_motion_rev_day": 15.24942699
    },
    {
      "epoch": "2026-03-30T14:00:03.000384Z",
      "apogee_km": 490.8807993438586,
      "perigee_km": 488.5977799076618,
      "latitude_deg": 31.756046913211577,
      "longitude_deg": -171.80048410243583,
      "height_km": 490.8929555823572,
      "semi_major_axis_km": 6867.87628962576,
      "eccentricity": 0.00016621,
      "inclination_deg": 42.9991,
      "raan_deg": 184.8764,
      "arg_perigee_deg": 305.8216,
      "mean_anomaly_deg": 104.4335,
      "mean_motion_rev_day": 15.25348455
    },
    {
      "epoch": "2026-03-30T22:00:00.999936Z",
      "apogee_km": 489.543779220794,
      "perigee_km": 487.32038415214356,
      "latitude_deg": 42.755634686635915,
      "longitude_deg": 105.10239860931136,
      "height_km": 492.34905060141546,
      "semi_major_axis_km": 6866.569081686469,
      "eccentricity": 0.0001619,
      "inclination_deg": 42.9996,
      "raan_deg": 182.9983,
      "arg_perigee_deg": 302.8674,
      "mean_anomaly_deg": 140.0837,
      "mean_motion_rev_day": 15.25784053
    },
    {
      "epoch": "2026-03-31T20:00:01.999008Z",
      "apogee_km": 486.6692532040315,
      "perigee_km": 484.6924736593628,
      "latitude_deg": 43.014373520153626,
      "longitude_deg": 132.88322928206298,
      "height_km": 489.7764327490613,
      "semi_major_axis_km": 6863.817863431697,
      "eccentricity": 0.000144,
      "inclination_deg": 42.9996,
      "raan_deg": 177.8325,
      "arg_perigee_deg": 275.2457,
      "mean_anomaly_deg": 170.5545,
      "mean_motion_rev_day": 15.26701513
    },
    {
      "epoch": "2026-04-01T20:00:01.999008Z",
      "apogee_km": 486.60773474946654,
      "perigee_km": 484.43744558705566,
      "latitude_deg": -5.8414006981244455,
      "longitude_deg": -131.74178839125614,
      "height_km": 486.26251676216447,
      "semi_major_axis_km": 6863.659590168261,
      "eccentricity": 0.0001581,
      "inclination_deg": 42.9997,
      "raan_deg": 172.1935,
      "arg_perigee_deg": 279.5712,
      "mean_anomaly_deg": 268.8942,
      "mean_motion_rev_day": 15.26754321
    },
    {
      "epoch": "2026-04-02T20:00:01.999008Z",
      "apogee_km": 486.4804155026659,
      "perigee_km": 484.4940826449838,
      "latitude_deg": -39.64744367642348,
      "longitude_deg": -26.72944942083871,
      "height_km": 496.44371693861154,
      "semi_major_axis_km": 6863.624249073824,
      "eccentricity": 0.0001447,
      "inclination_deg": 42.9997,
      "raan_deg": 166.5528,
      "arg_perigee_deg": 273.2067,
      "mean_anomaly_deg": 17.9974,
      "mean_motion_rev_day": 15.26766113
    },
    {
      "epoch": "2026-04-02T22:00:01.999584Z",
      "apogee_km": 486.58505721437905,
      "perigee_km": 484.55916483316923,
      "latitude_deg": 19.879705578248647,
      "longitude_deg": 27.497725788373028,
      "height_km": 485.40688745495953,
      "semi_major_axis_km": 6863.709111023774,
      "eccentricity": 0.00014758,
      "inclination_deg": 42.9999,
      "raan_deg": 166.0822,
      "arg_perigee_deg": 270.3091,
      "mean_anomaly_deg": 119.486,
      "mean_motion_rev_day": 15.26737798
    },
    {
      "epoch": "2026-04-03T20:00:01.999008Z",
      "apogee_km": 486.57639688108975,
      "perigee_km": 484.55435016184947,
      "latitude_deg": 22.46813846983237,
      "longitude_deg": 54.91240956687624,
      "height_km": 485.72646151060997,
      "semi_major_axis_km": 6863.702373521469,
      "eccentricity": 0.0001473,
      "inclination_deg": 42.9996,
      "raan_deg": 160.912,
      "arg_perigee_deg": 268.3477,
      "mean_anomaly_deg": 125.5963,
      "mean_motion_rev_day": 15.26740046
    },
    {
      "epoch": "2026-04-04T05:16:24.809376Z",
      "apogee_km": 486.68121233975126,
      "perigee_km": 484.39903969535044,
      "latitude_deg": -3.529927910301632e-05,
      "longitude_deg": -112.91533347191792,
      "height_km": 485.12178518178695,
      "semi_major_axis_km": 6863.677126017551,
      "eccentricity": 0.00016625,
      "inclination_deg": 42.998,
      "raan_deg": 158.7309,
      "arg_perigee_deg": 279.846,
      "mean_anomaly_deg": 80.2203,
      "mean_motion_rev_day": 15.2674847
    },
    {
      "epoch": "2026-04-05T12:40:34.928256Z",
      "apogee_km": 486.3944035919949,
      "perigee_km": 484.7616630598677,
      "latitude_deg": -2.102261465089447e-06,
      "longitude_deg": 127.37447063279149,
      "height_km": 485.36794014122853,
      "semi_major_axis_km": 6863.7150333259315,
      "eccentricity": 0.00011894,
      "inclination_deg": 43.0015,
      "raan_deg": 151.3525,
      "arg_perigee_deg": 269.0782,
      "mean_anomaly_deg": 90.9933,
      "mean_motion_rev_day": 15.26735822
    },
    {
      "epoch": "2026-04-06T04:22:40.263744Z",
      "apogee_km": 486.4648470461225,
      "perigee_km": 484.7373814375296,
      "latitude_deg": -3.828467639423736e-05,
      "longitude_deg": -112.48263740445068,
      "height_km": 485.49912827782396,
      "semi_major_axis_km": 6863.738114241826,
      "eccentricity": 0.00012584,
      "inclination_deg": 43.002,
      "raan_deg": 147.6625,
      "arg_perigee_deg": 261.9371,
      "mean_anomaly_deg": 98.1337,
      "mean_motion_rev_day": 15.26728121
    },
    {
      "epoch": "2026-04-07T10:12:36.964512Z",
      "apogee_km": 486.434360457999,
      "perigee_km": 484.69523569640205,
      "latitude_deg": 6.873451524364802e-06,
      "longitude_deg": 151.79348044824712,
      "height_km": 485.171680172416,
      "semi_major_axis_km": 6863.7017980772,
      "eccentricity": 0.00012669,
      "inclination_deg": 43.0016,
      "raan_deg": 140.65,
      "arg_perigee_deg": 281.2721,
      "mean_anomaly_deg": 78.7988,
      "mean_motion_rev_day": 15.26740238
    },
    {
      "epoch": "2026-04-07T19:37:51.744000Z",
      "apogee_km": 486.39345901059005,
      "perigee_km": 484.7173453259811,
      "latitude_deg": -4.049189250349898e-05,
      "longitude_deg": 7.881550224862407,
      "height_km": 485.2853240385819,
      "semi_major_axis_km": 6863.692402168285,
      "eccentricity": 0.0001221,
      "inclination_deg": 43.0008,
      "raan_deg": 138.4366,
      "arg_perigee_deg": 273.202,
      "mean_anomaly_deg": 86.8691,
      "mean_motion_rev_day": 15.26743373
    },
    {
      "epoch": "2026-04-08T11:19:56.755488Z",
      "apogee_km": 486.378392852007,
      "perigee_km": 484.74373452116015,
      "latitude_deg": 2.9209261850603376e-05,
      "longitude_deg": 128.02530810216058,
      "height_km": 485.25372909022065,
      "semi_major_axis_km": 6863.698063686584,
      "eccentricity": 0.00011908,
      "inclination_deg": 43.0023,
      "raan_deg": 134.746,
      "arg_perigee_deg": 275.9132,
      "mean_anomaly_deg": 84.1584,
      "mean_motion_rev_day": 15.26741484
    },
    {
      "epoch": "2026-04-09T09:18:51.414912Z",
      "apogee_km": 486.36897539621987,
      "perigee_km": 484.7588884316119,
      "latitude_deg": 5.191689277198799e-06,
      "longitude_deg": 152.22826963733553,
      "height_km": 485.33509778749595,
      "semi_major_axis_km": 6863.700931913916,
      "eccentricity": 0.00011729,
      "inclination_deg": 43.0027,
      "raan_deg": 129.5795,
      "arg_perigee_deg": 270.4077,
      "mean_anomaly_deg": 89.664,
      "mean_motion_rev_day": 15.26740527
    },
    {
      "epoch": "2026-04-10T02:35:08.542464Z",
      "apogee_km": 486.3671449343583,
      "perigee_km": 484.75074453937304,
      "latitude_deg": 3.3280921486789895e-05,
      "longitude_deg": -111.61177943864752,
      "height_km": 485.2997125795489,
      "semi_major_axis_km": 6863.695944736865,
      "eccentricity": 0.00011775,
      "inclination_deg": 43.0022,
      "raan_deg": 125.5201,
      "arg_perigee_deg": 272.5583,
      "mean_anomaly_deg": 87.5134,
      "mean_motion_rev_day": 15.26742191
    }
  ]
}